MEAN_MOTION;ECCENTRICITY;INCLINATION;RA_OF_ASC_NODE;ARG_OF_PERICENTER;MEAN_ANOMALY;BSTAR;MEAN_MOTION_DOT;MEAN_MOTION_DDOT;TYPE
1.00271231;0.0002069;0.0171;130.0882;226.9549;217.0571;0;3.5E-7;0;Intelsat
1.00271299;0.000211;0.0192;130.9773;229.1016;193.9256;0;3.1E-7;0;Intelsat
1.00271319;0.0002107;0.0196;131.0664;229.3041;224.0718;0;3.1E-7;0;Intelsat
1.00272323;0.0002089;0.0214;105.6896;255.0159;55.744;0;2.9E-7;0;Intelsat
1.00272364;0.0002093;0.0206;100.8145;260.2884;96.8432;0;2.9E-7;0;Intelsat
1.00270692;0.0002104;0.0163;84.4888;273.5977;290.8824;0;2.8E-7;0;Intelsat
1.00270903;0.0002102;0.0168;83.7568;274.2072;94.9102;0;2.6E-7;0;Intelsat
1.00271017;0.0002108;0.0183;79.961;279.303;208.2935;0;2.5E-7;0;Intelsat
1.00268142;0.0002341;0.0157;165.753;199.7588;286.2728;0;2.6E-7;0;Intelsat
1.00271983;0.0001987;0.0147;178.1687;193.9217;67.303;0;2.4E-7;0;Intelsat
1.00269897;0.0002114;0.0145;174.9427;194.5095;121.4257;0;2.4E-7;0;Intelsat
1.00270249;0.0002126;0.0143;172.0774;202.6531;149.467;0;2.4E-7;0;Intelsat
1.00270296;0.0002122;0.0143;171.6002;203.3012;197.1768;0;2.3E-7;0;Intelsat
1.00270618;0.0002107;0.0139;169.4448;208.2277;75.7855;0;2.3E-7;0;Intelsat
1.00271171;0.0002094;0.0132;160.3331;221.7753;151.3264;0;2.5E-7;0;Intelsat
1.00271228;0.0002093;0.0134;159.701;222.7103;198.5865;0;2.4E-7;0;Intelsat
1.00271694;0.0002076;0.0133;150.25;235.1174;187.5236;0;2.5E-7;0;Intelsat
1.00271804;0.0002074;0.0131;148.5263;236.9713;280.2888;0;2.6E-7;0;Intelsat
1.00273369;0.0002055;0.0179;90.6993;295.829;44.5795;0;2.6E-7;0;Intelsat
1.00273411;0.000207;0.017;132.2258;252.9992;184.5608;0;2.6E-7;0;Intelsat
1.00273468;0.0002066;0.0169;128.0523;257.0639;283.4879;0;2.7E-7;0;Intelsat
1.0027354;0.0002056;0.0172;101.0599;284.0098;27.1728;0;2.7E-7;0;Intelsat
1.00273636;0.0002055;0.0174;112.234;271.4936;207.6115;0;2.7E-7;0;Intelsat
1.00272385;0.000195;0.0084;191.5111;200.7091;144.4223;0;2.8E-7;0;Intelsat
1.00272367;0.0001952;0.0086;188.3803;204.1601;185.9997;0;2.8E-7;0;Intelsat
1.00274328;0.0001933;0.0064;157.6127;234.3947;34.5535;0;2.9E-7;0;Intelsat
1.00274345;0.0001937;0.0065;158.2588;234.3754;64.9025;0;2.8E-7;0;Intelsat
1.00274399;0.000193;0.0063;162.284;230.1214;177.7332;0;2.8E-7;0;Intelsat
1.00272983;0.0001942;0.0097;168.5708;225.1856;1.0283;0;2.9E-7;0;Intelsat
1.00272983;0.0001942;0.0097;168.5708;225.1856;1.0283;0;2.9E-7;0;Intelsat
1.00270834;0.0001913;0.0071;164.7233;221.8903;51.1942;0;3.1E-7;0;Intelsat
1.00270851;0.0001903;0.0075;160.8386;226.2948;75.7143;0;3.1E-7;0;Intelsat
1.00270964;0.0001908;0.0075;161.3648;224.937;203.9814;0;3.1E-7;0;Intelsat
1.00269321;0.0001886;0.0122;160.1522;228.2744;37.8251;0;3.2E-7;0;Intelsat
1.00271266;0.0001872;0.0098;149.3963;237.8573;174.343;0;3.2E-7;0;Intelsat
1.00271274;0.0001872;0.01;149.4905;237.7804;188.8247;0;3.2E-7;0;Intelsat
1.00269414;0.0001848;0.013;159.5133;229.0123;269.2142;0;3.3E-7;0;Intelsat
1.00269567;0.0001831;0.0137;157.7804;230.4997;193.5042;0;3.4E-7;0;Intelsat
1.00269599;0.0001819;0.0139;158.0842;230.3265;275.879;0;3.5E-7;0;Intelsat
1.00269753;0.0001812;0.0142;156.9666;230.7199;175.8514;0;3.6E-7;0;Intelsat
1.00269555;0.000171;0.0142;220.4254;167.7608;194.1974;0;3.8E-7;0;Intelsat
1.00270013;0.0001719;0.0134;220.3118;167.944;152.8488;0;4.1E-7;0;Intelsat
1.00270027;0.0001716;0.0135;220.2291;167.6119;179.1963;0;4.1E-7;0;Intelsat
1.00270367;0.0001722;0.0122;220.3098;166.0704;157.5428;0;4.3E-7;0;Intelsat
1.0027039;0.0001722;0.0122;220.1732;165.8534;183.8132;0;4.3E-7;0;Intelsat
1.00272547;0.0001728;0.011;222.8631;168.2834;75.8346;0;4.4E-7;0;Intelsat
1.00272258;0.0001768;0.0104;220.899;170.8349;176.9811;0;4.5E-7;0;Intelsat
1.00272376;0.0001762;0.0104;221.1679;170.3229;206.0126;0;4.5E-7;0;Intelsat
1.00272524;0.0001761;0.0096;221.7048;169.1662;305.2747;0;4.5E-7;0;Intelsat
1.00274606;0.0001781;0.0151;35.0876;354.5899;176.0634;0;4.6E-7;0;Intelsat
1.0027465;0.0001794;0.0152;38.3388;351.7019;206.0579;0;4.6E-7;0;Intelsat
1.00274715;0.0001806;0.0015;174.8719;215.0435;38.4652;0;4.5E-7;0;Intelsat
1.00269984;0.0001817;0.0148;27.5141;353.32;151.1976;0;4.6E-7;0;Intelsat
1.0027005;0.0001824;0.0041;63.8474;316.586;217.3892;0;4.5E-7;0;Intelsat
1.00270258;0.0001857;0.007;66.5813;314.973;183.5751;0;4.3E-7;0;Intelsat
1.00270276;0.0001865;0.0066;162.7186;219.016;220.6152;0;4.2E-7;0;Intelsat
1.00270305;0.0001872;0.0071;161.8829;219.756;266.5576;0;4.2E-7;0;Intelsat
1.00271546;0.0001864;0.0167;259.8486;125.2707;287.6424;0;4.2E-7;0;Intelsat
1.00270235;0.0001798;0.0173;313.3808;69.4138;157.2361;0;4.0E-7;0;Intelsat
1.0027023;0.000181;0.0174;275.5623;107.7165;206.1906;0;3.9E-7;0;Intelsat
1.0027006;0.0001913;0.0098;272.6183;114.6009;270.651;0;3.9E-7;0;Intelsat
1.00270394;0.0001892;0.0098;260.2143;126.0577;223.7118;0;3.6E-7;0;Intelsat
1.00270395;0.0001915;0.0082;265.6232;121.8212;276.1458;0;3.6E-7;0;Intelsat
1.0027067;0.0001905;0.0109;259.9298;126.4853;226.9937;0;3.3E-7;0;Intelsat
1.00268728;0.0001962;0.0061;267.7418;122.3572;282.6829;0;3.3E-7;0;Intelsat
1.00269033;0.0002011;0.0038;305.0313;86.3715;165.7788;0;3.1E-7;0;Intelsat
1.00269037;0.0002017;0.0044;325.5884;66.6853;209.2416;0;3.0E-7;0;Intelsat
1.00269088;0.0002027;0.0148;35.8209;357.3215;279.8461;0;3.0E-7;0;Intelsat
1.00269313;0.0002097;0.0161;41.7649;354.1687;201.5798;0;2.9E-7;0;Intelsat
1.00269661;0.000216;0.0173;44.6475;354.5989;202.3856;0;2.8E-7;0;Intelsat
1.00272547;0.0002198;0.0109;43.5569;355.4885;213.4128;0;2.8E-7;0;Intelsat
1.00271644;0.0002286;0.0126;268.7902;140.4402;134.7598;0;2.9E-7;0;Intelsat
1.00273513;0.0002283;0.0143;281.7902;129.9173;159.8371;0;3.0E-7;0;Intelsat
1.00273543;0.0002284;0.0144;282.2394;129.5616;184.6316;0;2.9E-7;0;Intelsat
1.00273882;0.0002275;0.0123;279.1178;132.7252;172.1667;0;3.1E-7;0;Intelsat
1.00273914;0.0002277;0.0121;280.6073;131.479;186.4556;0;3.0E-7;0;Intelsat
1.00274105;0.0002235;0.0097;278.4031;132.021;179.975;0;3.2E-7;0;Intelsat
1.00274221;0.0002258;0.0091;285.3678;126.4048;205.7468;0;3.2E-7;0;Intelsat
1.00274298;0.0002254;0.0124;309.9262;102.5506;275.5001;0;3.2E-7;0;Intelsat
1.00274536;0.0002259;0.0214;8.114;45.1247;177.7065;0;3.2E-7;0;Intelsat
1.00274562;0.000226;0.0212;8.1731;45.1974;203.3633;0;3.2E-7;0;Intelsat
1.00274773;0.0002174;0.0168;321.5715;94.949;46.4381;0;3.3E-7;0;Intelsat
1.00274819;0.0002177;0.0169;322.2754;94.3572;67.2977;0;3.3E-7;0;Intelsat
1.00274827;0.0002193;0.017;324.4149;93.2136;191.9444;0;3.3E-7;0;Intelsat
1.00275097;0.0002194;0.0174;329.6657;89.2735;63.383;0;3.3E-7;0;Intelsat
1.00275188;0.0002197;0.0178;333.4586;86.2851;159.2787;0;3.4E-7;0;Intelsat
1.00275218;0.0002199;0.0176;333.45;86.4485;189.0424;0;3.4E-7;0;Intelsat
1.002754;0.0002198;0.0183;338.6528;81.8354;0.9174;0;3.4E-7;0;Intelsat
1.00270494;0.0002133;0.0201;344.368;68.8896;162.6992;0;3.6E-7;0;Intelsat
1.00270609;0.0002127;0.0199;344.3964;68.9013;194.035;0;3.5E-7;0;Intelsat
1.00270963;0.0002106;0.0233;0.6134;54.1188;167.0109;0;3.7E-7;0;Intelsat
1.00270983;0.0002105;0.0232;0.8665;53.9813;189.1676;0;3.7E-7;0;Intelsat
1.00271313;0.0002078;0.027;16.8765;39.0444;178.0743;0;3.9E-7;0;Intelsat
1.00271335;0.0002078;0.0269;16.9168;39.1182;200.2468;0;3.8E-7;0;Intelsat
1.0027162;0.0002048;0.032;34.6985;22.1979;185.1235;0;4.1E-7;0;Intelsat
1.00271872;0.0002019;0.0348;41.8165;15.6834;170.5635;0;4.3E-7;0;Intelsat
1.00271925;0.0002014;0.0355;44.4009;13.3708;248.0428;0;4.3E-7;0;Intelsat
1.00271989;0.0001929;0.0179;325.9443;95.3673;199.7665;0;4.5E-7;0;Intelsat
1.00272068;0.0001926;0.0182;327.561;94.0043;268.8928;0;4.6E-7;0;Intelsat
1.00272213;0.0001888;0.0176;331.9308;88.7905;182.8491;0;4.8E-7;0;Intelsat
1.00272274;0.000188;0.018;334.1301;86.8109;275.6387;0;4.9E-7;0;Intelsat
1.00272374;0.000187;0.018;336.5168;84.4192;67.6003;0;4.9E-7;0;Intelsat
1.00272432;0.0001862;0.0181;339.2663;81.3814;176.9445;0;5.0E-7;0;Intelsat
1.00272488;0.0001853;0.0186;341.7613;79.0346;279.2866;0;5.1E-7;0;Intelsat
1.00272576;0.0001846;0.0193;345.4424;75.5294;88.1884;0;5.1E-7;0;Intelsat
1.00272626;0.0001842;0.0195;348.1806;72.4974;178.7491;0;5.2E-7;0;Intelsat
1.00272713;0.0001827;0.0204;352.8703;68.0969;25.5935;0;5.3E-7;0;Intelsat
1.00272747;0.0001827;0.021;354.6136;66.2785;87.4993;0;5.3E-7;0;Intelsat
1.00272806;0.0001828;0.0214;358.1412;62.4091;202.4008;0;5.3E-7;0;Intelsat
1.00272882;0.0001814;0.0224;3.4781;57.307;43.988;0;5.3E-7;0;Intelsat
1.00272963;0.0001823;0.0236;9.2454;51.188;207.916;0;5.3E-7;0;Intelsat
1.00273043;0.0001814;0.0245;14.7809;45.8294;70.6873;0;5.3E-7;0;Intelsat
1.0027311;0.000183;0.0255;19.6818;40.6973;213.5917;0;5.2E-7;0;Intelsat
1.00273237;0.0001842;0.0277;29.4759;30.9989;172.6022;0;5.0E-7;0;Intelsat
1.00273249;0.0001847;0.0275;29.9996;30.4775;198.6212;0;5.0E-7;0;Intelsat
1.00273072;0.0001827;0.0165;338.9434;85.8271;172.0978;0;4.8E-7;0;Intelsat
1.00269675;0.000182;0.0178;346.1278;70.758;127.5112;0;4.5E-7;0;Intelsat
1.0027005;0.0001881;0.0187;357.2774;60.7416;195.5555;0;4.1E-7;0;Intelsat
1.00270059;0.0001886;0.0186;357.2741;60.8605;210.929;0;4.1E-7;0;Intelsat
1.00270202;0.0001925;0.02;4.2786;54.5393;96.6909;0;3.9E-7;0;Intelsat
1.00270262;0.0001949;0.0207;8.4364;51.0046;196.1202;0;3.8E-7;0;Intelsat
1.0027027;0.0001953;0.0206;8.4448;51.112;209.5153;0;3.8E-7;0;Intelsat
1.00270422;0.0001996;0.022;14.8352;45.6363;75.5357;0;3.7E-7;0;Intelsat
1.00270526;0.0002024;0.0232;20.4102;41.0969;207.1128;0;3.6E-7;0;Intelsat
1.00270569;0.0002036;0.0235;21.0438;40.9485;265.4532;0;3.6E-7;0;Intelsat
1.00270817;0.0002097;0.0274;33.8714;29.8072;201.6576;0;3.5E-7;0;Intelsat
1.00270872;0.0002109;0.0276;34.4285;29.8338;266.3932;0;3.5E-7;0;Intelsat
1.00271139;0.0002172;0.0332;54.1519;11.7216;196.3405;0;3.4E-7;0;Intelsat
1.00273187;0.0002181;0.0161;338.9446;92.4392;266.7875;0;3.4E-7;0;Intelsat
1.00271409;0.0002185;0.016;343.7399;86.8359;191.6911;0;3.5E-7;0;Intelsat
1.00271427;0.0002187;0.016;343.8175;86.8862;207.5906;0;3.5E-7;0;Intelsat
1.00271768;0.0002263;0.0166;351.5198;81.432;167.2334;0;3.6E-7;0;Intelsat
1.00271891;0.0002276;0.0171;353.8605;79.9823;279.5186;0;3.6E-7;0;Intelsat
1.00272233;0.0002336;0.0177;0.0852;75.1292;177.2838;0;3.7E-7;0;Intelsat
